[{"OBJECT_NAME":"STARLINK-31374","OBJECT_ID":"2024-064G","EPOCH":"2026-03-09T04:46:03.897408","MEAN_MOTION":15.2756791,"ECCENTRICITY":8.418e-5,"INCLINATION":43.0059,"RA_OF_ASC_NODE":7.8835,"ARG_OF_PERICENTER":294.8221,"MEAN_ANOMALY":65.2543,"EPHEMERIS_TYPE":0,"CLASSIFICATION_TYPE":"U","NORAD_CAT_ID":59404,"ELEMENT_SET_NO":999,"REV_AT_EPOCH":10948,"BSTAR":-9.6014487e-5,"MEAN_MOTION_DOT":-2.902e-5,"MEAN_MOTION_DDOT":0},{"OBJECT_NAME":"FLOCK 4G-25","OBJECT_ID":"2025-009AP","EPOCH":"2026-03-09T17:53:50.680608","MEAN_MOTION":15.27424196,"ECCENTRICITY":8.276e-5,"INCLINATION":97.4049,"RA_OF_ASC_NODE":151.4141,"ARG_OF_PERICENTER":316.3151,"MEAN_ANOMALY":43.8023,"EPHEMERIS_TYPE":0,"CLASSIFICATION_TYPE":"U","NORAD_CAT_ID":62646,"ELEMENT_SET_NO":999,"REV_AT_EPOCH":6373,"BSTAR":0.00038902475,"MEAN_MOTION_DOT":0.00010373,"MEAN_MOTION_DDOT":0}]
